     2.10           N: GPS NAV DATA                         RINEX VERSION / TYPE
JPS2RIN v.2.0.187   gpsops              20200210 013144 UTC PGM / RUN BY / DATE
    18                                                      LEAP SECONDS
BSHM                                    MARKER NAME         COMMENT
20705M001                               MARKER NUMBER       COMMENT
4395951.1833 3080707.2289 3433498.2609                      COMMENT
This data is provided as a public service by NASA/JPL.      COMMENT
No warranty is expressed or implied regarding suitability   COMMENT
for use.  For further information, contact:                 COMMENT
Dave Stowers, NASA/JPL m/s 238-600                          COMMENT
4800 Oak Grove Drive, Pasadena CA 91109 USA                 COMMENT
                                                            END OF HEADER
24 20  2  9 18  0  0.0-8.807051926851D-06-5.684341886081D-13 0.000000000000D+00
    8.100000000000D+01 1.250000000000D-01 5.757739832975D-09-2.979222555275D+00
   -1.229345798492D-07 9.517242899165D-03 4.170462489128D-06 5.153649858475D+03
    6.480000000000D+04-7.264316082001D-08 1.748097335682D+00-1.974403858185D-07
    9.365199577468D-01 2.859375000000D+02 6.568896651770D-01-8.558927942275D-09
    1.250052069686D-11 1.000000000000D+00 2.092000000000D+03 0.000000000000D+00
    2.000000000000D+00 0.000000000000D+00 2.793968000000D-09 8.100000000000D+01
    5.763000000000D+04 4.000000000000D+00
25 20  2  9 18  0  0.0-1.371558755636D-05 1.250555214938D-12 0.000000000000D+00
    6.000000000000D+01-1.378125000000D+01 4.248034090528D-09 1.417699939750D+00
   -6.575137376785D-07 9.068565675989D-03 1.270882785320D-05 5.153599874496D+03
    6.480000000000D+04-1.862645149231D-07 2.855406166374D+00 9.313225746155D-09
    9.672568686911D-01 1.400000000000D+02 8.968266029649D-01-7.887828559721D-09
   -8.000333245992D-10 1.000000000000D+00 2.092000000000D+03 0.000000000000D+00
    2.000000000000D+00 0.000000000000D+00 5.587935000000D-09 6.000000000000D+01
    5.763000000000D+04 4.000000000000D+00
29 20  2  9 18  0  0.0-2.891663461924D-05-9.549694368616D-12 0.000000000000D+00
    6.800000000000D+01 1.544375000000D+02 3.830516699253D-09-7.179656172355D-01
    7.959082722664D-06 1.073273015209D-03 8.277595043182D-06 5.153634002686D+03
    6.480000000000D+04-1.676380634308D-08-2.315309857812D+00-3.725290298462D-09
    9.858090281601D-01 2.323750000000D+02 1.920008168778D+00-7.873899408087D-09
    3.457286867018D-10 1.000000000000D+00 2.092000000000D+03 0.000000000000D+00
    2.000000000000D+00 0.000000000000D+00-1.024455000000D-08 6.800000000000D+01
    5.763000000000D+04 4.000000000000D+00
31 20  2  9 18  0  0.0-2.212356775999D-05-2.501110429876D-12 0.000000000000D+00
    3.200000000000D+01-9.187500000000D+00 5.330579182877D-09 1.969519839733D+00
   -2.793967723846D-07 9.653043467551D-03 4.516914486885D-06 5.153765785217D+03
    6.480000000000D+04-6.332993507385D-08 1.833589036458D+00 2.477318048477D-07
    9.577589081715D-01 2.941250000000D+02 1.160248184537D-01-8.455709357092D-09
   -1.810789712374D-10 1.000000000000D+00 2.092000000000D+03 0.000000000000D+00
    2.000000000000D+00 0.000000000000D+00-1.350418000000D-08 3.200000000000D+01
    5.994000000000D+04 4.000000000000D+00
32 20  2  9 18  0  0.0 2.079838886857D-04 1.000444171950D-11 0.000000000000D+00
    1.600000000000D+01 1.906250000000D+01 4.651622330170D-09-2.543761469647D-01
    1.059845089912D-06 3.528016270138D-03 1.080706715584D-05 5.153681400299D+03
    6.480000000000D+04 1.303851604462D-08 7.513209335669D-01 1.490116119385D-08
    9.568822545125D-01 1.709062500000D+02-2.531599743039D+00-8.009619347081D-09
    6.946717930114D-10 1.000000000000D+00 2.092000000000D+03 0.000000000000D+00
    2.000000000000D+00 0.000000000000D+00 4.656613000000D-10 1.600000000000D+01
    5.763000000000D+04 4.000000000000D+00
10 20  2  9 19 59 44.0-2.395040355623D-04-1.318767317571D-11 0.000000000000D+00
    2.000000000000D+00-1.603437500000D+02 4.091599002950D-09 2.075469550152D+00
   -8.190050721169D-06 5.376213230193D-03 9.937211871147D-06 5.153677556992D+03
    7.198400000000D+04-7.636845111847D-08-2.905797048168D-01-1.676380634308D-08
    9.652403955769D-01 1.905312500000D+02-2.677290080975D+00-7.957831475623D-09
   -2.439387324559D-10 1.000000000000D+00 2.092000000000D+03 0.000000000000D+00
    2.000000000000D+00 0.000000000000D+00 1.862645000000D-09 2.000000000000D+00
    7.113000000000D+04 4.000000000000D+00
26 20  2  9 19 59 44.0 1.450167037547D-04 7.844391802792D-12 0.000000000000D+00
    6.000000000000D+00-2.231250000000D+01 4.798771316659D-09 1.804306545501D+00
   -8.903443813324D-07 4.638175480068D-03 1.203082501888D-05 5.153747253418D+03
    7.198400000000D+04-4.656612873077D-08 2.822074887249D+00 5.215406417847D-08
    9.483625941258D-01 1.423125000000D+02 1.957993958765D-01-8.071407635097D-09
   -7.611031315719D-10 1.000000000000D+00 2.092000000000D+03 0.000000000000D+00
    2.000000000000D+00 0.000000000000D+00 7.450581000000D-09 6.000000000000D+00
    6.975000000000D+04 4.000000000000D+00
 2 20  2  9 20  0  0.0-4.017925821245D-04-6.934897101019D-12 0.000000000000D+00
    7.000000000000D+01-3.312500000000D+00 4.896632535828D-09-1.864739637228D+00
    2.607703208923D-07 1.980719750281D-02-1.141801476479D-06 5.153631164551D+03
    7.200000000000D+04 3.315508365631D-07-1.402914055562D+00 1.918524503708D-07
    9.575599732564D-01 3.990937500000D+02-1.662145333585D+00-8.552856260794D-09
   -1.071473202588D-11 1.000000000000D+00 2.092000000000D+03 0.000000000000D+00
    2.000000000000D+00 0.000000000000D+00-1.769513000000D-08 7.000000000000D+01
    6.492000000000D+04 4.000000000000D+00
 5 20  2  9 20  0  0.0-7.343012839556D-06-5.684341886081D-13 0.000000000000D+00
    8.700000000000D+01-1.508437500000D+02 4.412326648258D-09 7.538684956831D-01
   -7.726252079010D-06 5.781024228781D-03 1.023709774017D-05 5.153607980728D+03
    7.200000000000D+04-8.381903171539D-08-3.178751916805D-01 5.960464477539D-08
    9.521446762362D-01 1.779062500000D+02 7.942915964275D-01-8.165697276925D-09
   -2.939408152434D-10 1.000000000000D+00 2.092000000000D+03 0.000000000000D+00
    2.000000000000D+00 0.000000000000D+00-1.117587000000D-08 8.700000000000D+01
    6.492000000000D+04 4.000000000000D+00
12 20  2  9 20  0  0.0 1.530484296381D-04-4.206412995700D-12 0.000000000000D+00
    9.000000000000D+01 1.293750000000D+01 3.852303321039D-09 2.780564142023D+00
    5.345791578293D-07 7.943971431814D-03 1.309812068939D-05 5.153756225586D+03
    7.200000000000D+04 1.117587089539D-08 2.922876387065D+00-1.844018697739D-07
    9.799503367621D-01 1.312812500000D+02 1.105677323007D+00-7.469239695243D-09
   -7.261016736206D-10 1.000000000000D+00 2.092000000000D+03 0.000000000000D+00
    2.000000000000D+00 0.000000000000D+00-1.257285000000D-08 9.000000000000D+01
    6.492000000000D+04 4.000000000000D+00
15 20  2  9 20  0  0.0-2.526985481381D-04 2.614797267597D-12 0.000000000000D+00
    3.900000000000D+01 1.600000000000D+01 5.189144720135D-09-8.481564639326D-01
    1.074746251106D-06 1.215835043695D-02 1.199729740620D-05 5.153635959625D+03
    7.200000000000D+04 1.303851604462D-07 6.566722814021D-01 2.756714820862D-07
    9.283352119735D-01 1.292500000000D+02 8.632011046822D-01-8.386777914392D-09
    7.475311376724D-10 1.000000000000D+00 2.092000000000D+03 0.000000000000D+00
    2.000000000000D+00 0.000000000000D+00-1.117587000000D-08 3.900000000000D+01
    7.116000000000D+04 4.000000000000D+00
16 20  2  9 20  0  0.0-1.227185130119D-04-4.092726157978D-12 0.000000000000D+00
    7.200000000000D+01 3.093750000000D+00 4.011952828225D-09 9.427792282991D-01
    5.532056093216D-07 1.139781530946D-02 1.255981624126D-05 5.153713399887D+03
    7.200000000000D+04-1.415610313416D-07 2.941741046317D+00 1.154839992523D-07
    9.802289378069D-01 1.486875000000D+02 5.984712457124D-01-7.737465153624D-09
   -7.671748130532D-10 1.000000000000D+00 2.092000000000D+03 0.000000000000D+00
    2.000000000000D+00 0.000000000000D+00-1.071021000000D-08 7.200000000000D+01
    7.005000000000D+04 4.000000000000D+00
20 20  2  9 20  0  0.0 5.278596654534D-04 0.000000000000D+00 0.000000000000D+00
    9.400000000000D+01-1.642187500000D+02 4.884132015131D-09-2.648199619961D+00
   -8.264556527138D-06 5.043582990766D-03 8.150935173035D-06 5.153636304855D+03
    7.200000000000D+04-5.587935447693D-09-4.177652277015D-01 6.705522537231D-08
    9.333388277542D-01 2.063437500000D+02 2.587003271207D+00-8.352133614175D-09
   -2.792973481413D-10 1.000000000000D+00 2.092000000000D+03 0.000000000000D+00
    2.000000000000D+00 0.000000000000D+00-8.847564000000D-09 9.400000000000D+01
    6.711000000000D+04 4.000000000000D+00
21 20  2  9 20  0  0.0-4.340754821897D-05 5.456968210638D-12 0.000000000000D+00
    9.700000000000D+01 1.703125000000D+01 4.946277460882D-09 2.287419271966D+00
    6.183981895447D-07 2.488146291580D-02-1.497566699982D-06 5.153566549301D+03
    7.200000000000D+04 2.663582563400D-07-1.400076112984D+00-2.048909664154D-08
    9.514608659013D-01 3.972500000000D+02-1.366306014027D+00-8.433565577572D-09
   -1.532206679701D-10 1.000000000000D+00 2.092000000000D+03 0.000000000000D+00
    2.000000000000D+00 0.000000000000D+00-1.024455000000D-08 9.700000000000D+01
    6.492000000000D+04 4.000000000000D+00
